NORAD_CAT_ID,OBJECT_NAME,OBJECT_TYPE,EPOCH,MEAN_MOTION,ECCENTRICITY,INCLINATION,RA_OF_ASC_NODE,ARG_OF_PERICENTER,MEAN_ANOMALY,BSTAR,MEAN_MOTION_DOT,MEAN_MOTION_DDOT,TLE_LINE0,TLE_LINE1,TLE_LINE2,SEMIMAJOR_AXIS,PERIOD,APOGEE,PERIGEE,DECAYED
51864.0,STARLINK-3548,PAYLOAD,2024-04-16 13:37:17,15.08844302,0.0001691,53.2163,236.1018,79.01,281.1082,0.00013813,1.911e-05,0.0,0 STARLINK-3548,1 51864U 22022N   24107.56756342  .00001911  00000-0  13813-3 0  9995,2 51864  53.2163 236.1018 0001691  79.0100 281.1082 15.08844302118671,6917.867,95.437,540.902,538.562,0.0
51864.0,STARLINK-3548,PAYLOAD,2024-04-16 15:12:40,15.08851874,0.0001663,53.2167,235.8021,85.3519,274.7663,0.00015822,2.232e-05,0.0,0 STARLINK-3548,1 51864U 22022N   24107.63379845  .00002232  00000-0  15822-3 0  9991,2 51864  53.2167 235.8021 0001663  85.3519 274.7663 15.08851874118684,6917.844,95.437,540.86,538.559,0.0
51864.0,STARLINK-3548,PAYLOAD,2024-04-17 13:28:04,15.08839248,0.0001154,53.2154,231.6394,86.0322,274.0802,3.7635e-05,3.11e-06,0.0,0 STARLINK-3548,1 51864U 22022N   24108.56116413  .00000311  00000-0  37635-4 0  9997,2 51864  53.2154 231.6394 0001154  86.0322 274.0802 15.08839248118827,6917.883,95.438,540.546,538.949,0.0
51864.0,STARLINK-3548,PAYLOAD,2024-04-18 13:18:52,15.08829348,0.0001507,53.2161,227.1804,79.6224,280.4938,1.6804e-05,-2.1e-07,0.0,0 STARLINK-3548,1 51864U 22022N   24109.55477479 -.00000021  00000-0  16804-4 0  9993,2 51864  53.2161 227.1804 0001507  79.6224 280.4938 15.08829348118979,6917.913,95.438,540.82,538.735,0.0
51864.0,STARLINK-3548,PAYLOAD,2024-04-19 13:09:39,15.08841713,0.0001629,53.2175,222.7185,101.0967,259.0209,0.00021073,3.067e-05,0.0,0 STARLINK-3548,1 51864U 22022N   24110.54837304  .00003067  00000-0  21073-3 0  9996,2 51864  53.2175 222.7185 0001629 101.0967 259.0209 15.08841713119127,6917.875,95.437,540.867,538.613,0.0
51864.0,STARLINK-3548,PAYLOAD,2024-04-20 13:00:26,15.08816433,9.06e-05,53.2177,218.2567,111.8908,248.218,-0.00033208,-5.565e-05,0.0,0 STARLINK-3548,1 51864U 22022N   24111.54197784 -.00005565  00000-0 -33208-3 0  9998,2 51864  53.2177 218.2567 0000906 111.8908 248.2180 15.08816433119279,6917.952,95.439,540.444,539.191,0.0
51864.0,STARLINK-3548,PAYLOAD,2024-04-20 14:35:50,15.08806742,0.0001015,53.2176,217.96,95.8988,264.212,-0.00047137,-7.775e-05,0.0,0 STARLINK-3548,1 51864U 22022N   24111.60822331 -.00007775  00000-0 -47137-3 0  9999,2 51864  53.2176 217.9600 0001015  95.8988 264.2120 15.08806742119288,6917.982,95.44,540.549,539.145,0.0
51864.0,STARLINK-3548,PAYLOAD,2024-04-21 14:26:36,15.08856342,0.0001201,53.2172,213.5018,77.1074,283.0052,0.00031092,4.666e-05,0.0,0 STARLINK-3548,1 51864U 22022N   24112.60181562  .00004666  00000-0  31092-3 0  9991,2 51864  53.2172 213.5018 0001201  77.1074 283.0052 15.08856342119436,6917.83,95.437,540.526,538.865,0.0
51864.0,STARLINK-3548,PAYLOAD,2024-04-21 16:01:59,15.08861288,0.0001002,53.2171,213.2018,100.2517,259.8588,0.0003767,5.716e-05,0.0,0 STARLINK-3548,1 51864U 22022N   24112.66805162  .00005716  00000-0  37670-3 0  9991,2 51864  53.2171 213.2018 0001002 100.2517 259.8588 15.08861288119442,6917.815,95.436,540.373,538.987,0.0
51864.0,STARLINK-3548,PAYLOAD,2024-04-22 11:06:37,15.08843143,0.0001344,53.2171,209.638,120.6422,239.4703,0.00064831,0.00010046,0.0,0 STARLINK-3548,1 51864U 22022N   24113.46293767  .00010046  00000-0  64831-3 0  9993,2 51864  53.2171 209.6380 0001344 120.6422 239.4703 15.08843143119569,6917.871,95.437,540.666,538.806,0.0
51864.0,STARLINK-3548,PAYLOAD,2024-04-22 12:42:00,15.08844935,0.0001291,53.2179,209.3447,80.1119,280.0019,0.00065035,0.00010079,0.0,0 STARLINK-3548,1 51864U 22022N   24113.52917821  .00010079  00000-0  65035-3 0  9997,2 51864  53.2179 209.3447 0001291  80.1119 280.0019 15.08844935119575,6917.865,95.437,540.623,538.837,0.0
51864.0,STARLINK-3548,PAYLOAD,2024-04-23 12:32:47,15.08849286,0.0001179,53.2168,204.8748,105.4385,254.6737,-0.00010768,-2.002e-05,0.0,0 STARLINK-3548,1 51864U 22022N   24114.52277225 -.00002002  00000-0 -10768-3 0  9997,2 51864  53.2168 204.8748 0001179 105.4385 254.6737 15.08849286119723,6917.852,95.437,540.533,538.901,0.0
51864.0,STARLINK-3548,PAYLOAD,2024-04-24 12:23:35,15.08834071,0.0001449,53.2177,200.4181,105.8157,254.2995,-0.00019849,-3.445e-05,0.0,0 STARLINK-3548,1 51864U 22022N   24115.51638432 -.00003445  00000-0 -19849-3 0  9999,2 51864  53.2177 200.4181 0001449 105.8157 254.2995 15.08834071119871,6917.899,95.438,540.766,538.761,0.0
51864.0,STARLINK-3548,PAYLOAD,2024-04-25 12:14:22,15.08849632,0.0001507,53.2167,195.9551,100.8686,259.2475,0.0004597,7.038e-05,0.0,0 STARLINK-3548,1 51864U 22022N   24116.50998555  .00007038  00000-0  45970-3 0  9998,2 51864  53.2167 195.9551 0001507 100.8686 259.2475 15.08849632120022,6917.851,95.437,540.758,538.673,0.0
51864.0,STARLINK-3548,PAYLOAD,2024-04-26 05:43:37,15.08847545,0.0001334,53.2164,192.6893,99.9563,260.1579,0.00022751,3.335e-05,0.0,0 STARLINK-3548,1 51864U 22022N   24117.23862513  .00003335  00000-0  22751-3 0  9991,2 51864  53.2164 192.6893 0001334  99.9563 260.1579 15.08847545120131,6917.857,95.437,540.645,538.799,0.0
51864.0,STARLINK-3548,PAYLOAD,2024-04-26 12:05:09,15.08861055,0.0001654,53.2169,191.501,111.8515,248.2653,0.00045456,6.958e-05,0.0,0 STARLINK-3548,1 51864U 22022N   24117.50357932  .00006958  00000-0  45456-3 0  9996,2 51864  53.2169 191.5010 0001654 111.8515 248.2653 15.08861055120177,6917.816,95.436,540.825,538.537,0.0
51864.0,STARLINK-3548,PAYLOAD,2024-04-26 21:37:27,15.08862955,0.000139,53.216,189.7145,91.6555,268.4597,0.00035128,5.311e-05,0.0,0 STARLINK-3548,1 51864U 22022N   24117.90101474  .00005311  00000-0  35128-3 0  9995,2 51864  53.2160 189.7145 0001390  91.6555 268.4597 15.08862955120230,6917.81,95.436,540.637,538.714,0.0
51864.0,STARLINK-3548,PAYLOAD,2024-04-27 11:55:55,15.0885091,0.0001644,53.216,187.0378,84.4197,275.6982,-1.7572e-05,-5.68e-06,0.0,0 STARLINK-3548,1 51864U 22022N   24118.49717295 -.00000568  00000-0 -17572-4 0  9999,2 51864  53.2160 187.0378 0001644  84.4197 275.6982 15.08850910120329,6917.847,95.437,540.849,538.575,0.0
51864.0,STARLINK-3548,PAYLOAD,2024-04-27 13:31:18,15.08858691,0.0001482,53.2163,186.7389,90.1725,269.9437,0.00019045,2.746e-05,0.0,0 STARLINK-3548,1 51864U 22022N   24118.56340948  .00002746  00000-0  19045-3 0  9998,2 51864  53.2163 186.7389 0001482  90.1725 269.9437 15.08858691120337,6917.823,95.436,540.713,538.663,0.0
51864.0,STARLINK-3548,PAYLOAD,2024-04-28 03:49:47,15.08826933,0.0001436,53.2153,184.0643,87.9475,272.1681,-0.0003679,-6.136e-05,0.0,0 STARLINK-3548,1 51864U 22022N   24119.15958322 -.00006136  00000-0 -36790-3 0  9990,2 51864  53.2153 184.0643 0001436  87.9475 272.1681 15.08826933120426,6917.92,95.438,540.779,538.792,0.0
51864.0,STARLINK-3548,PAYLOAD,2024-04-28 11:46:44,15.08824486,0.0001425,53.2161,182.5777,86.3697,273.7458,-0.00028181,-4.768e-05,0.0,0 STARLINK-3548,1 51864U 22022N   24119.49079074 -.00004768  00000-0 -28181-3 0  9999,2 51864  53.2161 182.5777 0001425  86.3697 273.7458 15.08824486120478,6917.928,95.439,540.779,538.807,0.0
51864.0,STARLINK-3548,PAYLOAD,2024-04-28 21:19:02,15.08832599,0.0001314,53.2159,180.7914,91.7111,268.4032,-9.8781e-05,-1.859e-05,0.0,0 STARLINK-3548,1 51864U 22022N   24119.88822846 -.00001859  00000-0 -98781-4 0  9997,2 51864  53.2159 180.7914 0001314  91.7111 268.4032 15.08832599120536,6917.903,95.438,540.677,538.859,0.0
51864.0,STARLINK-3548,PAYLOAD,2024-04-29 03:40:35,15.0883199,0.0001455,53.2166,179.6019,87.3474,272.7685,7.6331e-05,9.27e-06,0.0,0 STARLINK-3548,1 51864U 22022N   24120.15319183  .00000927  00000-0  76331-4 0  9994,2 51864  53.2166 179.6019 0001455  87.3474 272.7685 15.08831990120576,6917.905,95.438,540.776,538.763,0.0
51864.0,STARLINK-3548,PAYLOAD,2024-04-29 11:37:31,15.08844097,0.0001274,53.2148,178.1152,92.488,267.6258,0.00030745,4.609e-05,0.0,0 STARLINK-3548,1 51864U 22022N   24120.48438797  .00004609  00000-0  30745-3 0  9992,2 51864  53.2148 178.1152 0001274  92.4880 267.6258 15.08844097120622,6917.868,95.437,540.614,538.852,0.0
51864.0,STARLINK-3548,PAYLOAD,2024-04-29 21:09:50,15.08845669,0.0001275,53.2151,176.3318,92.4256,267.6882,0.00039348,5.981e-05,0.0,0 STARLINK-3548,1 51864U 22022N   24120.88182900  .00005981  00000-0  39348-3 0  9990,2 51864  53.2151 176.3318 0001275  92.4256 267.6882 15.08845669120683,6917.863,95.437,540.61,538.846,0.0
51864.0,STARLINK-3548,PAYLOAD,2024-04-30 09:52:54,15.08852853,0.0001358,53.215,173.9533,90.1355,269.9793,0.00039028,5.931e-05,0.0,0 STARLINK-3548,1 51864U 22022N   24121.41174703  .00005931  00000-0  39028-3 0  9992,2 51864  53.2150 173.9533 0001358  90.1355 269.9793 15.08852853120769,6917.841,95.437,540.646,538.767,0.0
51864.0,STARLINK-3548,PAYLOAD,2024-04-30 21:00:36,15.0885039,0.0001354,53.2145,171.872,87.2959,272.8188,0.00025392,3.757e-05,0.0,0 STARLINK-3548,1 51864U 22022N   24121.87542593  .00003757  00000-0  25392-3 0  9991,2 51864  53.2145 171.8720 0001354  87.2959 272.8188 15.08850390120834,6917.849,95.437,540.65,538.777,0.0
51864.0,STARLINK-3548,PAYLOAD,2024-05-01 03:22:09,15.08847665,0.0001396,53.2144,170.6825,87.701,272.4142,0.00015773,2.224e-05,0.0,0 STARLINK-3548,1 51864U 22022N   24122.14038543  .00002224  00000-0  15773-3 0  9997,2 51864  53.2144 170.6825 0001396  87.7010 272.4142 15.08847665120876,6917.857,95.437,540.688,538.756,0.0
51864.0,STARLINK-3548,PAYLOAD,2024-05-01 09:43:41,15.08847816,0.0001395,53.2148,169.4931,87.011,273.1042,0.00013824,1.913e-05,0.0,0 STARLINK-3548,1 51864U 22022N   24122.40534549  .00001913  00000-0  13824-3 0  9992,2 51864  53.2148 169.4931 0001395  87.0110 273.1042 15.08847816120917,6917.856,95.437,540.687,538.756,0.0
51864.0,STARLINK-3548,PAYLOAD,2024-05-02 03:12:56,15.08842479,0.0001464,53.2148,166.2222,84.3219,275.794,5.7401e-05,6.26e-06,0.0,0 STARLINK-3548,1 51864U 22022N   24123.13398616  .00000626  00000-0  57401-4 0  9996,2 51864  53.2148 166.2222 0001464  84.3219 275.7940 15.08842479121020,6917.873,95.437,540.751,538.725,0.0
